     2.100          NAVIGATION                              RINEX VERSION / TYPE
fic2rin                                 03/26/2013 00:19:54 PGM / RUN BY / DATE
                                                            END OF HEADER
21 13  3 25 13 59 44.0 -.288097653538D-03 -.216004991671D-11  .000000000000D+00
     .200000000000D+02 -.170000000000D+02  .486555981295D-08 -.211558605984D+01
    -.121258199215D-05  .201105830492D-01  .118147581816D-04  .515371955490D+04
     .136784000000D+06  .240281224251D-06 -.335708300581D+00 -.651925802231D-07
     .931978142779D+00  .128531250000D+03 -.215926674706D+01 -.788961434839D-08
     .186793494985D-09  .100000000000D+01  .173300000000D+04  .000000000000D+00
     .240000000000D+01  .000000000000D+00 -.111758708954D-07  .200000000000D+02
     .129606000000D+06  .400000000000D+01
23 13  3 25 13 59 44.0  .101597048342D-03 -.363797880709D-11  .000000000000D+00
     .180000000000D+02 -.589062500000D+02  .510128391752D-08  .443727425657D+00
    -.311993062496D-05  .829253927805D-02  .430829823017D-05  .515373007011D+04
     .136784000000D+06  .856816768646D-07  .177061910727D+01  .838190317154D-07
     .956152391516D+00  .289156250000D+03 -.291247325622D+01 -.863464538192D-08
    -.543236913712D-09  .100000000000D+01  .173300000000D+04  .000000000000D+00
     .240000000000D+01  .000000000000D+00 -.200234353542D-07  .180000000000D+02
     .129606000000D+06  .400000000000D+01
28 13  3 25 13 59 44.0  .244063325226D-03  .341060513165D-11  .000000000000D+00
     .600000000000D+01  .783125000000D+02  .404838291711D-08  .237067711439D+01
     .387616455555D-05  .186155068222D-01  .617653131485D-05  .515363607216D+04
     .136784000000D+06  .173225998878D-06 -.237616227453D+01 -.180676579475D-06
     .982487616027D+00  .266843750000D+03 -.177372361107D+01 -.770103506474D-08
     .472876840076D-09  .100000000000D+01  .173300000000D+04  .000000000000D+00
     .240000000000D+01  .000000000000D+00 -.107102096081D-07  .600000000000D+01
     .129606000000D+06  .400000000000D+01
 1 13  3 25 14  0  0.0  .103660859168D-04  .318323145621D-11  .000000000000D+00
     .810000000000D+02 -.298125000000D+02  .430375069706D-08 -.599126733953D+00
    -.151619315147D-05  .169038120657D-02  .136550515890D-04  .515371138382D+04
     .136800000000D+06  .577419996262D-07 -.336015982974D+00 -.558793544769D-08
     .960644233203D+00  .115875000000D+03  .332364507264D+00 -.789390024120D-08
    -.421446126351D-10  .100000000000D+01  .173300000000D+04  .000000000000D+00
     .240000000000D+01  .000000000000D+00  .838190317154D-08  .810000000000D+02
     .129606000000D+06  .400000000000D+01
 2 13  3 25 14  0  0.0  .423983205110D-03  .193267624127D-11  .000000000000D+00
     .300000000000D+02 -.304375000000D+02  .494877756502D-08  .226164959696D+00
    -.151246786118D-05  .121879177168D-01  .120401382446D-04  .515363457108D+04
     .136800000000D+06  .894069671631D-07 -.356272361545D+00  .189989805222D-06
     .939146551086D+00  .139781250000D+03 -.263749122493D+01 -.830248868912D-08
    -.682171272315D-10  .100000000000D+01  .173300000000D+04  .000000000000D+00
     .240000000000D+01  .000000000000D+00 -.176951289177D-07  .300000000000D+02
     .129606000000D+06  .400000000000D+01
 3 13  3 25 14  0  0.0  .185418874025D-03  .522959453519D-11  .000000000000D+00
     .300000000000D+02 -.447812500000D+02  .564130641163D-08  .396361517591D+00
    -.235252082348D-05  .160559435608D-01  .353902578354D-05  .515367870903D+04
     .136800000000D+06 -.255182385445D-06 -.152522460583D+01  .409781932831D-07
     .933485467737D+00  .298875000000D+03  .127539993202D+01 -.913323757886D-08
    -.284297556420D-09  .100000000000D+01  .173300000000D+04  .000000000000D+00
     .340000000000D+01  .000000000000D+00 -.465661287308D-08  .300000000000D+02
     .129606000000D+06  .400000000000D+01
 4 13  3 25 14  0  0.0  .171441119164D-03  .109139364213D-10  .000000000000D+00
     .550000000000D+02 -.333437500000D+02  .479662837025D-08 -.282170924258D+01
    -.195205211639D-05  .103302643402D-01  .125952064991D-04  .515377562332D+04
     .136800000000D+06  .119209289551D-06 -.339762127039D+00 -.158324837685D-06
     .938191384077D+00  .122968750000D+03  .965447623774D+00 -.796854620765D-08
     .321441960776D-11  .100000000000D+01  .173300000000D+04  .000000000000D+00
     .240000000000D+01  .000000000000D+00 -.605359673500D-08  .550000000000D+02
     .129606000000D+06  .400000000000D+01
 5 13  3 25 14  0  0.0 -.389212742448D-03 -.147792889038D-11  .000000000000D+00
     .710000000000D+02  .779375000000D+02  .513235664040D-08  .234201799770D+01
     .409036874771D-05  .306017906405D-02  .666640698910D-05  .515358227539D+04
     .136800000000D+06 -.135973095894D-06  .708140691599D+00  .260770320892D-07
     .949234755163D+00  .246062500000D+03  .306955056813D+00 -.839070664947D-08
     .488948938114D-09  .100000000000D+01  .173300000000D+04  .000000000000D+00
     .240000000000D+01  .000000000000D+00 -.102445483208D-07  .710000000000D+02
     .129606000000D+06  .400000000000D+01
 6 13  3 25 14  0  0.0  .300711486489D-03 -.152340362547D-10  .000000000000D+00
     .100000000000D+02 -.596875000000D+02  .537022369137D-08  .226521088962D+01
    -.313296914101D-05  .791180692613D-02  .368617475033D-05  .515368142128D+04
     .136800000000D+06  .447034835815D-07 -.144619166643D+01  .191852450371D-06
     .940171837222D+00  .295312500000D+03 -.362899237078D+00 -.870250535142D-08
    -.321441960776D-09  .100000000000D+01  .173300000000D+04  .000000000000D+00
     .240000000000D+01  .000000000000D+00 -.512227416039D-08  .100000000000D+02
     .129606000000D+06  .400000000000D+01
 7 13  3 25 14  0  0.0  .195193104446D-03  .432009983342D-11  .000000000000D+00
     .730000000000D+02 -.155625000000D+02  .375372778640D-08 -.116308139750D+01
    -.907108187675D-06  .615176407155D-02  .136736780405D-04  .515370790863D+04
     .136800000000D+06  .707805156708D-07  .282463252302D+01 -.180676579475D-06
     .975853583899D+00  .124968750000D+03 -.293231386909D+01 -.760210237236D-08
    -.191436545529D-09  .100000000000D+01  .173300000000D+04  .000000000000D+00
     .240000000000D+01  .000000000000D+00 -.107102096081D-07  .730000000000D+02
     .129606000000D+06  .400000000000D+01
 8 13  3 25 14  0  0.0  .530434772372D-05  .227373675443D-12  .000000000000D+00
     .550000000000D+02  .243750000000D+01  .325370695853D-08 -.171405128502D+01
    -.353902578354D-07  .127826125827D-01  .135917216539D-04  .515359749222D+04
     .136800000000D+06 -.149011611938D-07  .291444472559D+01 -.175088644028D-06
     .998534147927D+00  .136531250000D+03 -.287798935419D+01 -.728851788174D-08
     .625026034843D-10  .100000000000D+01  .173300000000D+04  .000000000000D+00
     .240000000000D+01  .000000000000D+00 -.419095158577D-08  .550000000000D+02
     .129606000000D+06  .400000000000D+01
 9 13  3 25 14  0  0.0  .229365658015D-03  .261479726760D-11  .000000000000D+00
     .102000000000D+03 -.116250000000D+02  .379301513716D-08 -.872324979494D+00
    -.599771738052D-06  .172162847593D-01  .127498060465D-04  .515280909729D+04
     .136800000000D+06 -.244006514549D-06  .280100335463D+01  .145286321640D-06
     .984491187667D+00  .150593750000D+03  .164217636429D+01 -.790425781549D-08
    -.139648674071D-09  .100000000000D+01  .173300000000D+04  .000000000000D+00
     .240000000000D+01  .000000000000D+00 -.558793544769D-08  .102000000000D+03
     .129606000000D+06  .400000000000D+01
10 13  3 25 14  0  0.0 -.745025463402D-04 -.136424205266D-11  .000000000000D+00
     .760000000000D+02  .801562500000D+02  .517771567264D-08  .262304803223D+01
     .399164855480D-05  .123393870890D-01  .672787427902D-05  .515361658669D+04
     .136800000000D+06 -.894069671631D-07  .727933525559D+00 -.193715095520D-06
     .944053909783D+00  .239968750000D+03  .797767682889D+00 -.825355807954D-08
     .474662628747D-09  .100000000000D+01  .173300000000D+04  .000000000000D+00
     .340000000000D+01  .000000000000D+00 -.232830643654D-08  .760000000000D+02
     .129606000000D+06  .400000000000D+01
11 13  3 25 14  0  0.0 -.365867745131D-03 -.363797880709D-11  .000000000000D+00
     .510000000000D+02 -.723750000000D+02  .614739892098D-08 -.958735163145D+00
    -.353530049324D-05  .138670214219D-01  .113677233458D-04  .515369077301D+04
     .136800000000D+06  .558793544769D-08 -.628162186322D+00  .298023223877D-06
     .888990523235D+00  .122375000000D+03  .115168489847D+01 -.896715923246D-08
    -.288583449230D-09  .100000000000D+01  .173300000000D+04  .000000000000D+00
     .240000000000D+01  .000000000000D+00 -.116415321827D-07  .510000000000D+02
     .129606000000D+06  .400000000000D+01
12 13  3 25 14  0  0.0  .124774407595D-03  .204636307899D-11  .000000000000D+00
     .400000000000D+02  .734687500000D+02  .409981363084D-08 -.144111604143D+01
     .384449958801D-05  .442587421276D-02  .633485615253D-05  .515359934235D+04
     .136800000000D+06 -.335276126862D-07 -.240082733520D+01 -.838190317154D-07
     .983361727134D+00  .270468750000D+03  .183318548319D+00 -.796318884164D-08
     .474305471012D-09  .100000000000D+01  .173300000000D+04  .000000000000D+00
     .240000000000D+01  .000000000000D+00 -.121071934700D-07  .400000000000D+02
     .129606000000D+06  .400000000000D+01
13 13  3 25 14  0  0.0  .134796835482D-03 -.352429196937D-11  .000000000000D+00
     .550000000000D+02 -.688125000000D+02  .437018203562D-08  .131674996984D+01
    -.384263694286D-05  .512376101688D-02  .544451177120D-05  .515377382088D+04
     .136800000000D+06  .726431608200D-07  .185704053344D+01 -.782310962677D-07
     .981910159837D+00  .282156250000D+03  .206694995121D+01 -.814319633967D-08
    -.592524681031D-09  .100000000000D+01  .173300000000D+04  .000000000000D+00
     .240000000000D+01  .000000000000D+00 -.111758708954D-07  .550000000000D+02
     .129606000000D+06  .400000000000D+01
